#dP2024 11 22  0  0  0.00000000      96 __u+U IGS20 FIT  IAC
## 2341 432000.00000000   900.00000000 60636 0.0000000000000
+   51   G02G03G04G05G06G07G08G09G10G11G13G14G15G16G17G18G19
+        G20G21G22G23G24G25G26G27G28G29G30G31G32R01R02R03R04
+        R05R07R08R09R11R12R14R15R16R17R18R19R20R21R22R24R26
+          0  0  0  0  0  0  0  0  0  0  0  0  0  0  0  0  0
+          0  0  0  0  0  0  0  0  0  0  0  0  0  0  0  0  0
++         5  6  6  7  6  5  6  7  5  4  6  5  6  5  5  6  6
++         5  5  5  6  5  5  6  5  6  6  6  6  5  6  6  6  6
++         6  6  7  8  7  7  6  6  7  6  7  8  7  5  6  6  8
++         0  0  0  0  0  0  0  0  0  0  0  0  0  0  0  0  0
++         0  0  0  0  0  0  0  0  0  0  0  0  0  0  0  0  0
%c M  cc GPS ccc cccc cccc cccc cccc ccccc ccccc ccccc ccccc
%c cc cc ccc ccc cccc cccc cccc cccc ccccc ccccc ccccc ccccc
%f  0.0000000  0.000000000  0.00000000000  0.000000000000000
%f  0.0000000  0.000000000  0.00000000000  0.000000000000000
%i    0    0    0    0      0      0      0      0         0
%i    0    0    0    0      0      0      0      0         0
/* INFORMATION & ANALYSIS CENTER (IAC)      ULTRA-RAPID DATA
/* S/V CLOCKS ARE ALIGNED TO GNSS TIME                      
/* G:C1WC2W R:C1PC2P E:C1XC5X C:C2IC6I J:C1CC2S             
/* PCV:IGS20_2317 OL/AL:FES2004  NONE     YN ORB:CoN CLK:CoN
*  2024 11 22  1  0  0.00000000
PG02  13776.908179 -12185.484422  19499.485292   -309.205104
PG03  22776.933007 -12905.751514  -4279.340724    606.090683
PG04  14824.048131  -6769.169115 -20987.927942    483.485042
PG05 -23932.056477   3336.336455 -11277.683638   -193.729153
PG06  -6116.550029 -21946.898152 -13482.853905   -132.974111
PG07   6730.563346 -24705.751500  -5551.134979    -18.843380
PG08  22314.507250   2737.290509  14362.837522    419.815315
PG09   5665.270747 -14494.514735 -21608.995714    454.333896
PG10   5031.466427  13874.755759  22297.522936   -204.916548
PG11 -13056.547652  -9876.391217 -20887.125495   -750.981765
PG13 -21636.420664 -12288.421652   9388.654325    686.995213
PG14   -777.176139 -16160.475007  21075.849917    544.781338
PG15 -22203.205057    266.790055  14161.038672    230.609584
PG16  22387.373341   3201.853863 -14631.152263   -122.311176
PG17  -9094.149705 -20533.386334  14441.498197    549.474052
PG18  -5986.072556  25448.500524  -3908.649524   -660.528508
PG19 -17158.020756 -19996.544174   4705.280376    565.498367
PG20 -17496.601581  -4633.766078 -19308.921359    368.530313
PG21  15150.278617  -4605.647428  21559.387396     96.876041
PG22  -8679.134120 -13137.998366  21751.548009    -81.171492
PG23  -9881.438006  17443.244781  17338.931240    368.172211
PG24 -14349.792879  10308.710307  19251.143159   -478.831159
PG25 -16367.943391  17112.618416 -12107.504869    498.819518
PG26  14032.482935   9802.862037 -20562.190413     17.981788
PG27  23182.302163  12302.845481   5080.743075    -34.644017
PG28   6166.677145  23175.519221 -11429.339582   -486.210956
PG29  -7401.305910  13356.662210 -21764.809889   -561.963833
PG30  -1052.917224 -25906.270627   5214.115243   -277.041351
PG31  11751.791538  14362.522317 -19105.461589   -221.346354
PG32  13244.341128  19865.989453  12073.243006   -570.373046
PR01 -24435.006532  -2842.682490   6755.068110    105.212984
PR02      0.000000      0.000000      0.000000 999999.999999
PR03   3777.141629  11892.483925  22301.704262    111.840667
PR04  19213.856178  11536.672697  12228.819775    265.064087
PR05  24594.774141   5214.912745  -4397.898162    141.069436
PR07  -4126.637746 -11912.955465 -22127.211439     95.457767
PR08 -19479.455208 -11304.909005 -11877.345397     -6.228634
PR09  17849.925090 -18146.356598   -692.728540    221.908182
PR11  -5218.748265 -10102.069754  22839.411702      6.393102
PR12 -17981.822814   6266.541005  16984.498250     47.515769
PR14  -8088.661926  18682.203726 -15374.048280     27.264496
PR15   6694.627391   8895.323232 -22935.546860     73.882089
PR16  17808.094061  -6261.473557 -17132.313758     30.985899
PR17   3243.657412  24562.796550  -5953.506957    141.975539
PR18   9786.196850  21169.573735  10407.083767    173.056190
PR19  11392.091600   9246.681940  20871.081126   -299.292883
PR20   6732.403850 -13481.252636  20587.298201   -122.221374
PR21  -2516.592658 -24421.201150   6991.463981   -153.298176
PR22  -9838.143190 -20592.907026 -11353.897583    -17.560226
PR24  -6234.685338  14366.292526 -20102.865914    -81.076903
PR26 -18325.019391 -11589.304321 -13432.232073   -133.365737
*  2024 11 22  1 15  0.00000000
PG02  13899.066325  -9970.733508  20695.816306   -309.197409
PG03  23132.652248 -12868.892316  -1388.894386    606.099661
PG04  16664.578983  -5315.565975 -20016.945218    483.490817
PG05 -22783.092761   2524.357802 -13649.952830   -193.730667
PG06  -5829.697569 -23340.188844 -11055.661878   -133.000721
PG07   6976.441031 -23819.152008  -8258.572917    -18.841744
PG08  23494.229882   3718.364912  12145.875968    419.824219
PG09   7745.233875 -13170.488724 -21816.886679    454.349285
PG10   2776.912650  14910.190685  21989.593391   -204.929793
PG11 -12685.077462 -12185.853668 -19879.305539   -750.982928
PG13 -22199.222470 -13070.627698   6725.372207    686.996541
PG14   1417.713281 -17053.208344  20302.842508    544.788547
PG15 -23512.370104   -639.913824  11958.103016    230.613745
PG16  20832.160224   3940.307848 -16618.862894   -122.302461
PG17  -7639.941038 -19619.656245  16486.599688    549.460985
PG18  -6153.912663  24814.940481  -6717.658507   -660.528703
PG19 -16491.287971 -19696.040607   7433.230935    565.502445
PG20 -15702.769510  -6069.253305 -20429.052162    368.529945
PG21  15261.775916  -2188.178770  21961.221673     96.875139
PG22  -6420.757752 -14014.476246  22018.660975    -81.173901
PG23 -11611.363163  18168.369640  15389.565797    368.179366
PG24 -14542.233499   7943.197258  20218.684623   -478.828990
PG25 -17563.444944  17424.387445  -9645.048962    498.819277
PG26  12030.008153  11046.325229 -21161.967285     17.969844
PG27  23430.376757  12740.931430   2293.623578    -34.643986
PG28   5887.959498  24325.295938  -8904.624151   -486.221359
PG29  -9352.500404  11812.586782 -21917.254760   -561.960969
PG30   -679.582944 -26306.149991   2440.612124   -277.034234
PG31  11386.529049  16404.441430 -17569.990792   -221.345585
PG32  11922.058410  19195.682997  14344.238693   -570.368157
PR01 -25092.560049  -2833.963797   3624.406238    105.214195
PR02      0.000000      0.000000      0.000000 999999.999999
PR03   1086.094877  11188.775073  22945.562814    111.841441
PR04  17638.272929  10972.294764  14845.494617    265.065612
PR05  24976.295008   5124.147638  -1194.455242    141.070743
PR07  -1432.337554 -11207.424697 -22826.887659     95.457427
PR08 -17919.819950 -10779.052269 -14519.131884     -6.228315
PR09  17596.981460 -17991.876705  -3867.175445    221.910203
PR11  -3336.883942 -12143.942223  22186.562148      6.391998
PR12 -16394.892923   4719.051980  18977.438408     47.516159
PR14  -9209.906858  20018.603546 -12858.235735     27.264428
PR15   4769.637764  10939.930315 -22529.738121     73.881817
PR16  16201.795827  -4698.533665 -19114.248672     30.986457
PR17   3158.544694  23623.103773  -9012.486231    141.978765
PR18  10252.848634  22180.096943   7421.483436    173.058106
PR19  12063.737541  11633.323720  19234.411792   -299.293569
PR20   7241.157050 -10906.797492  21901.447104   -122.222088
PR21  -2421.359556 -23361.434023   9999.592059   -153.301212
PR22 -10255.907691 -21754.362339  -8456.328635    -17.571139
PR24  -6877.780167  11875.485763 -21472.235096    -81.078295
PR26 -16592.531305 -11035.228141 -15916.235411   -133.365514
EOF
